41925,IRIDIUM 112,2017,100.4,860.0,+,86.39,Active,1,LEO,USA,USA,Commercial/Government,Communications,Falcon,1 41925U 17003J   25122.61558095  .00000310  00000+0  10378-3 0  9998,2 41925  86.3943 259.8152 0002106  90.3405 269.8032 14.34217504434426,14.34217504,0.0002106,LEO
41926,IRIDIUM 111,2017,100.4,860.0,+,86.39,Active,1,LEO,USA,USA,Commercial/Government,Communications,Falcon,1 41926U 17003K   25122.46336316  .00000535  00000+0  18413-3 0  9999,2 41926  86.3945 259.9403 0002100  98.4323 261.7111 14.34217073434386,14.34217073,0.00021,LEO
42803,IRIDIUM 113,2017,100.4,860.0,+,86.4,Active,1,LEO,USA,USA,Commercial/Government,Communications,Falcon,1 42803U 17039A   25122.58286063 -.00000048  00000+0 -24260-4 0  9998,2 42803  86.3955 133.8197 0002006  85.2205 274.9220 14.34217157412331,14.34217157,0.0002006,LEO
42804,IRIDIUM 123,2017,100.4,860.0,+,86.4,Active,1,LEO,USA,USA,Commercial/Government,Communications,Falcon,1 42804U 17039B   25122.62434040  .00000010  00000+0 -35824-5 0  9991,2 42804  86.4005 165.2446 0002129 103.1533 256.9900 14.34217439411107,14.34217439,0.0002129,LEO
42805,IRIDIUM 120,2017,100.4,860.0,+,86.39,Active,1,LEO,USA,USA,Commercial/Government,Communications,Falcon,1 42805U 17039C   25122.43698073  .00000038  00000+0  66814-5 0  9991,2 42805  86.3939 133.7165 0002520  97.4326 262.7156 14.34218020412309,14.3421802,0.000252,LEO
42806,IRIDIUM 115,2017,99.77,860.0,+,86.45,Active,1,LEO,USA,USA,Commercial/Government,Communications,Falcon,1 42806U 17039D   25122.54133979  .00000258  00000+0  70629-4 0  9995,2 42806  86.4480 133.7453 0002249 109.9540 250.1903 14.43282767415030,14.43282767,0.0002249,LEO
42807,IRIDIUM 118,2017,100.4,860.0,+,86.4,Active,1,LEO,USA,USA,Commercial/Government,Communications,Falcon,1 42807U 17039E   25122.58628339  .00000059  00000+0  14005-4 0  9994,2 42807  86.4002 165.2606 0002190  91.1338 269.0109 14.34218273411093,14.34218273,0.000219,LEO
42808,IRIDIUM 117,2017,100.4,860.0,+,86.4,Active,1,LEO,USA,USA,Commercial/Government,Communications,Falcon,1 42808U 17039F   25122.60531201  .00000483  00000+0  16536-3 0  9990,2 42808  86.4002 165.2143 0002079  99.6971 260.4459 14.34217879411120,14.34217879,0.0002079,LEO
